0 NADEZHDA 1
1 20103U 89050A   13282.52082647  .00000105  00000-0  94179-4 0  6737
2 20103 082.9581 122.9750 0038717 071.9862 306.6411 13.74432095217139
0 NADEZHDA 1
1 20103U 89050A   13283.54208787  .00000107  00000-0  96082-4 0  6743
2 20103 082.9580 122.2210 0038673 069.2265 319.7097 13.74432140217271
0 NADEZHDA 1
1 20103U 89050A   13285.73019052  .00000085  00000-0  73606-4 0  6765
2 20103 082.9577 120.6054 0038572 063.2993 346.1710 13.74432482217573
0 NADEZHDA 1
1 20103U 89050A   13287.13148641  .00000071  00000-0  58783-4 0  6773
2 20103 082.9576 119.5706 0038501 059.4985 079.6157 13.74432792217761
0 NADEZHDA 1
1 20103U 89050A   13288.14947560  .00000080  00000-0  67472-4 0  6788
2 20103 082.9576 118.8190 0038446 056.7258 076.5174 13.74433166217908
0 NADEZHDA 1
1 20103U 89050A   13289.16941354  .00000068  00000-0  54967-4 0  6798
2 20103 082.9577 118.0657 0038395 053.9545 083.0560 13.74433382218048
0 NADEZHDA 1
1 20103U 89050A   13290.53541147  .00000039  00000-0  24688-4 0  6804
2 20103 082.9578 117.0570 0038327 050.2457 001.8575 13.74433353218232
0 NADEZHDA 1
1 20103U 89050A   13292.15414824  .00000047  00000-0  33618-4 0  6818
2 20103 082.9579 115.8617 0038231 045.8273 091.2082 13.74433352218450
0 NADEZHDA 1
1 20103U 89050A   13293.44963183  .00000068  00000-0  55003-4 0  6824
2 20103 082.9580 114.9050 0038151 042.2781 021.1471 13.74433412218630
0 NADEZHDA 1
1 20103U 89050A   13294.53370560  .00000091  00000-0  79984-4 0  6837
2 20103 082.9581 114.1046 0038087 039.2947 345.0627 13.74433640218786
0 NADEZHDA 1
1 20103U 89050A   13296.08582660  .00000095  00000-0  83805-4 0  6847
2 20103 082.9580 112.9585 0037990 035.0239 104.8404 13.74433635218990
